STARLINK-33545          
1 62101U 24220P   26068.42503775  .00039641  00000+0  14410-2 0  9999
2 62101  43.0013 206.7886 0003104 295.1029  64.9501 15.27607917 72982
TEVEL2-9                
1 63237U 25052AD  26068.70229538  .00018694  00000+0  67240-3 0  9992
2 63237  97.4057 324.3929 0007990 124.2475 235.9522 15.28633834 54816
